GSAT0215 (GALILEO 19)   
1 43055U 17079A   26156.87054953  .00000041  00000+0  00000+0 0  9995
2 43055  55.0766 221.8189 0002568 253.4901 106.5680  1.70474626 52790
GSAT0216 (GALILEO 20)   
1 43056U 17079B   26155.40197341  .00000041  00000+0  00000+0 0  9993
2 43056  55.0770 221.8588 0004162 276.7209  83.3228  1.70474899 52781
GSAT0217 (GALILEO 21)   
1 43057U 17079C   26157.38249426  .00000041  00000+0  00000+0 0  9995
2 43057  55.0744 221.8020 0003476 288.9809  71.0662  1.70474392 52809
GSAT0218 (GALILEO 22)   
1 43058U 17079D   26157.01598592  .00000041  00000+0  00000+0 0  9997
2 43058  55.0748 221.8099 0005013 272.7637  87.2647  1.70474542 52820
BEIDOU-3 M7             
1 43107U 18003A   26156.53739500 -.00000056  00000+0  00000+0 0  9999
2 43107  54.3391 302.7213 0004991  91.1478 268.8986  1.86228500 57138
BEIDOU-3 M8             
1 43108U 18003B   26155.94539274 -.00000058  00000+0  00000+0 0  9992
2 43108  54.3323 302.7237 0002321 267.2927  92.6681  1.86231411 57130
BEIDOU-3 M4             
1 43207U 18018A   26156.92524065 -.00000038  00000+0  00000+0 0  9997
2 43207  56.6408  63.5205 0007646  14.5676 345.4822  1.86231485 56535
BEIDOU-3 M3             
1 43208U 18018B   26156.99171367 -.00000038  00000+0  00000+0 0  9998
2 43208  56.6410  63.5221 0008930 337.9616  22.0279  1.86231332 56535
BEIDOU-3 M9             
1 43245U 18029A   26156.13555275 -.00000056  00000+0  00000+0 0  9991
2 43245  54.2057 300.3710 0000840 140.8471 219.1477  1.86228436 55678
BEIDOU-3 M10            
1 43246U 18029B   26156.06997286 -.00000056  00000+0  00000+0 0  9996
2 43246  54.2027 300.3989 0004138  39.5125 320.5061  1.86229565 55656
IRNSS-1I                
1 43286U 18035A   26156.85912417  .00000090  00000+0  00000+0 0  9994
2 43286  28.7274  74.3793 0017208 232.0250 312.2399  1.00269424 29963
COSMOS 2527 [GLONASS-M] 
1 43508U 18053A   26157.29164362 -.00000006  00000+0  00000+0 0  9996
2 43508  65.5720  74.2705 0007460 241.8522 118.0947  2.13102388 62043
BEIDOU-2 IGSO-7         
1 43539U 18057A   26157.44072134  .00000010  00000+0  00000+0 0  9990
2 43539  55.1931 163.1513 0104714 237.9372 123.1911  1.00254878 29026
GSAT0221 (GALILEO 25)   
1 43564U 18060A   26155.74673316 -.00000070  00000+0  00000+0 0  9999
2 43564  57.1754 342.1162 0002780 310.8178  49.1700  1.70476097 48955
GSAT0222 (GALILEO 26)   
1 43565U 18060B   26157.13954150 -.00000066  00000+0  00000+0 0  9998
2 43565  57.1798 342.0825 0001851 255.3617 104.6309  1.70475822 49024
GSAT0219 (GALILEO 23)   
1 43566U 18060C   26155.01411019 -.00000072  00000+0  00000+0 0  9993
2 43566  57.1765 342.1411 0002350 331.7106  28.2884  1.70476084 48960
GSAT0220 (GALILEO 24)   
1 43567U 18060D   26156.40825677 -.00000068  00000+0  00000+0 0  9992
2 43567  57.1764 342.1042 0002330 321.7709  38.2250  1.70476048 48975
BEIDOU-3 M5             
1 43581U 18062A   26156.83105106  .00000081  00000+0  00000+0 0  9999
2 43581  54.0850 182.6899 0005528 289.5366  70.4586  1.86228807 53423
BEIDOU-3 M6             
1 43582U 18062B   26156.15751238  .00000075  00000+0  00000+0 0  9991
2 43582  54.0845 182.7022 0004838  12.0882 347.9796  1.86228010 53412
BEIDOU-3 M12            
1 43602U 18067A   26157.16982495  .00000085  00000+0  00000+0 0  9993
2 43602  54.1796 181.4138 0007790  30.5016 329.5963  1.86227950 52917
BEIDOU-3 M11            
1 43603U 18067B   26156.76789778  .00000081  00000+0  00000+0 0  9994
2 43603  54.1771 181.3911 0004479  14.0702 345.9952  1.86227385 52933
BEIDOU-3 M13            
1 43622U 18072A   26156.18585866 -.00000039  00000+0  00000+0 0  9993
2 43622  56.6148  63.0554 0007707 325.9899  33.9882  1.86231577 52435
BEIDOU-3 M14            
1 43623U 18072B   26157.12520362 -.00000038  00000+0  00000+0 0  9998
2 43623  56.6173  63.0188 0006272 355.0918   4.9306  1.86231671 52444
BEIDOU-3 M16            
1 43647U 18078A   26155.66985000 -.00000057  00000+0  00000+0 0  9992
2 43647  54.1020 300.4249 0007420  40.6792 319.3633  1.86232405 51927
BEIDOU-3 M15            
1 43648U 18078B   26152.57744501 -.00000074  00000+0  00000+0 0  9998
2 43648  54.1007 300.5335 0004536  56.3394 303.6792  1.86232507 51887
BEIDOU-3 G1             
1 43683U 18085A   26157.52174008 -.00000095  00000+0  00000+0 0  9997
2 43683   2.8408  97.6753 0008565 346.2518 158.8223  1.00271936 27959
COSMOS 2529 [GLONASS-M] 
1 43687U 18086A   26156.44971008  .00000070  00000+0  00000+0 0  9999
2 43687  64.2941 192.9908 0011692 256.2309 103.7093  2.13102149 59033
BEIDOU-3 M17            
1 43706U 18093A   26157.64194521  .00000089  00000+0  00000+0 0  9999
2 43706  54.1686 182.6542 0010014 291.3289 115.9953  1.86228514 51343
BEIDOU-3 M18            
1 43707U 18093B   26156.36067912  .00000077  00000+0  00000+0 0  9998
2 43707  54.1691 182.6896 0007758 321.2848  38.7154  1.86226697 51319
NAVSTAR 77 (USA 289)    
1 43873U 18109A   26156.85468341  .00000014  00000+0  00000+0 0  9996
2 43873  55.6750  92.6343 0038230 198.2081  23.0022  2.00561264 54843
BEIDOU-3 IGSO-1         
1 44204U 19023A   26155.58793341 -.00000211  00000+0  00000+0 0  9991
2 44204  58.6768  37.7810 0025470 225.7549 318.3782  1.00295778  7080
