OBJECT_NAME,OBJECT_ID,EPOCH,MEAN_MOTION,ECCENTRICITY,INCLINATION,RA_OF_ASC_NODE,ARG_OF_PERICENTER,MEAN_ANOMALY,EPHEMERIS_TYPE,CLASSIFICATION_TYPE,NORAD_CAT_ID,ELEMENT_SET_NO,REV_AT_EPOCH,BSTAR,MEAN_MOTION_DOT,MEAN_MOTION_DDOT
GSAT0215 (GALILEO 19),2017-079A,2026-06-05T20:53:35.479392,1.70474626,.00025681,55.0766,221.8189,253.4901,106.5680,0,U,43055,999,5279,0,.41E-6,0
GSAT0216 (GALILEO 20),2017-079B,2026-06-04T09:38:50.502624,1.70474899,.00041628,55.0770,221.8588,276.7209,83.3228,0,U,43056,999,5278,0,.41E-6,0
GSAT0217 (GALILEO 21),2017-079C,2026-06-06T09:10:47.504064,1.70474392,.00034764,55.0744,221.8020,288.9809,71.0662,0,U,43057,999,5280,0,.41E-6,0
GSAT0218 (GALILEO 22),2017-079D,2026-06-06T00:23:01.183488,1.70474542,.00050134,55.0748,221.8099,272.7637,87.2647,0,U,43058,999,5282,0,.41E-6,0
BEIDOU-3 M7 (C27),2018-003A,2026-06-05T12:53:50.928000,1.86228500,.00049917,54.3391,302.7213,91.1478,268.8986,0,U,43107,999,5713,0,-.56E-6,0
BEIDOU-3 M8 (C28),2018-003B,2026-06-04T22:41:21.932736,1.86231411,.00023218,54.3323,302.7237,267.2927,92.6681,0,U,43108,999,5713,0,-.58E-6,0
BEIDOU-3 M4 (C22),2018-018A,2026-06-05T22:12:20.792160,1.86231485,.00076466,56.6408,63.5205,14.5676,345.4822,0,U,43207,999,5653,0,-.38E-6,0
BEIDOU-3 M3 (C21),2018-018B,2026-06-05T23:48:04.061088,1.86231332,.000893,56.6410,63.5221,337.9616,22.0279,0,U,43208,999,5653,0,-.38E-6,0
BEIDOU-3 M9 (C29),2018-029A,2026-06-05T03:15:11.757600,1.86228436,.000084,54.2057,300.3710,140.8471,219.1477,0,U,43245,999,5567,0,-.56E-6,0
BEIDOU-3 M10 (C30),2018-029B,2026-06-05T01:40:45.655104,1.86229565,.00041388,54.2027,300.3989,39.5125,320.5061,0,U,43246,999,5565,0,-.56E-6,0
IRNSS-1I,2018-035A,2026-06-05T20:37:08.328288,1.00269424,.0017208,28.7274,74.3793,232.0250,312.2399,0,U,43286,999,2996,0,.9E-6,0
COSMOS 2527 (756),2018-053A,2026-06-06T06:59:58.008768,2.13102388,.000746,65.5720,74.2705,241.8522,118.0947,0,U,43508,999,6204,0,-.6E-7,0
BEIDOU-2 IGSO-7 (C16),2018-057A,2026-06-06T10:34:38.323776,1.00254878,.01047141,55.1931,163.1513,237.9372,123.1911,0,U,43539,999,2902,0,.1E-6,0
GSAT0221 (GALILEO 25),2018-060A,2026-06-04T17:55:17.745024,1.70476097,.00027803,57.1754,342.1162,310.8178,49.1700,0,U,43564,999,4895,0,-.7E-6,0
GSAT0222 (GALILEO 26),2018-060B,2026-06-06T03:20:56.385600,1.70475822,.0001851,57.1798,342.0825,255.3617,104.6309,0,U,43565,999,4902,0,-.66E-6,0
GSAT0219 (GALILEO 23),2018-060C,2026-06-04T00:20:19.120416,1.70476084,.00023501,57.1765,342.1411,331.7106,28.2884,0,U,43566,999,4896,0,-.72E-6,0
GSAT0220 (GALILEO 24),2018-060D,2026-06-05T09:47:53.384928,1.70476048,.000233,57.1764,342.1042,321.7709,38.2250,0,U,43567,999,4897,0,-.68E-6,0
BEIDOU-3 M5 (C23),2018-062A,2026-06-05T19:56:42.811584,1.86228807,.00055286,54.0850,182.6899,289.5366,70.4586,0,U,43581,999,5342,0,.81E-6,0
BEIDOU-3 M6 (C24),2018-062B,2026-06-05T03:46:49.069632,1.86228010,.0004838,54.0845,182.7022,12.0882,347.9796,0,U,43582,999,5341,0,.75E-6,0
BEIDOU-3 M12 (C26),2018-067A,2026-06-06T04:04:32.875680,1.86227950,.00077904,54.1796,181.4138,30.5016,329.5963,0,U,43602,999,5291,0,.85E-6,0
BEIDOU-3 M11 (C25),2018-067B,2026-06-05T18:25:46.368192,1.86227385,.0004479,54.1771,181.3911,14.0702,345.9952,0,U,43603,999,5293,0,.81E-6,0
BEIDOU-3 M13 (C32),2018-072A,2026-06-05T04:27:38.188224,1.86231577,.00077075,56.6148,63.0554,325.9899,33.9882,0,U,43622,999,5243,0,-.39E-6,0
BEIDOU-3 M14 (C33),2018-072B,2026-06-06T03:00:17.592768,1.86231671,.00062726,56.6173,63.0188,355.0918,4.9306,0,U,43623,999,5244,0,-.38E-6,0
BEIDOU-3 M16 (C35),2018-078A,2026-06-04T16:04:35.040000,1.86232405,.00074205,54.1020,300.4249,40.6792,319.3633,0,U,43647,999,5192,0,-.57E-6,0
BEIDOU-3 M15 (C34),2018-078B,2026-06-01T13:51:31.248864,1.86232507,.00045363,54.1007,300.5335,56.3394,303.6792,0,U,43648,999,5188,0,-.74E-6,0
BEIDOU-3 G1 (C59),2018-085A,2026-06-06T12:31:18.342912,1.00271936,.00085655,2.8408,97.6753,346.2518,158.8223,0,U,43683,999,2795,0,-.95E-6,0
COSMOS 2529 (757),2018-086A,2026-06-05T10:47:34.950912,2.13102149,.00116922,64.2941,192.9908,256.2309,103.7093,0,U,43687,999,5903,0,.7E-6,0
BEIDOU-3 M17 (C36),2018-093A,2026-06-06T15:24:24.066144,1.86228514,.00100142,54.1686,182.6542,291.3289,115.9953,0,U,43706,999,5134,0,.89E-6,0
BEIDOU-3 M18 (C37),2018-093B,2026-06-05T08:39:22.675968,1.86226697,.00077589,54.1691,182.6896,321.2848,38.7154,0,U,43707,999,5131,0,.77E-6,0
GPS BIII-1  (PRN 04),2018-109A,2026-06-05T20:30:44.646624,2.00561264,.00382306,55.6750,92.6343,198.2081,23.0022,0,U,43873,999,5484,0,.14E-6,0
BEIDOU-3 IGSO-1 (C38),2019-023A,2026-06-04T14:06:37.446624,1.00295778,.00254705,58.6768,37.7810,225.7549,318.3782,0,U,44204,999,708,0,-.211E-5,0
